IDEFIX & ARIANE 42P R/B 
1 27422U 02021B   25364.06405112  .00000540  00000+0  22176-3 0  9990
2 27422  98.5805 298.5318 0012570  36.6554 323.5486 14.30964692234064
AQUA                    
1 27424U 02022A   25364.00977152  .00001767  00000+0  36397-3 0  9997
2 27424  98.4060 325.1715 0001902  96.2534 338.9718 14.61775988258553
CZ-4B R/B               
1 27432U 02024C   25364.11560279  .00000114  00000+0  81981-4 0  9993
2 27432  98.8974  52.8246 0049577 219.7928 194.4855 14.14531874219402
MIDORI II (ADEOS-II)    
1 27597U 02056A   25364.14749321  .00000555  00000+0  23611-3 0  9994
2 27597  98.7659 317.1972 0001068 140.0920 220.0340 14.29219814200360
H-2A R/B                
1 27601U 02056E   25364.11863384  .00000703  00000+0  26103-3 0  9997
2 27601  98.3089 322.1857 0070594   9.9070   1.1935 14.33693889204147
CZ-4B R/B               
1 28059U 03049C   25364.20140976  .00000750  00000+0  18334-3 0  9992
2 28059  98.6802 351.4261 0049368  83.8911 276.7907 14.54928516176491
CZ-2C R/B               
1 28222U 04012C   25364.10117797  .00052131  00000+0  71793-3 0  9997
2 28222  97.7392  58.1712 0016750 203.2693 156.7805 15.56923537193420
SL-16 R/B               
1 28353U 04021B   25364.15846594  .00000376  00000+0  22070-3 0  9999
2 28353  71.0006  18.4101 0004321 170.4967 189.6238 14.14583112113008
CZ-4B R/B               
1 28415U 04035C   25364.05208926  .00013248  00000+0  48479-3 0  9996
2 28415  97.3597  34.1668 0032094 213.2423 146.6801 15.27678801169271
CZ-2C R/B               
1 28480U 04046B   25363.78755098  .00000456  00000+0  18456-3 0  9995
2 28480  98.1998 278.1069 0139605   2.1011 358.0729 14.26952681 98533
ARIANE 5 R/B            
1 28499U 04049H   25364.17126231  .00002148  00000+0  24329-3 0  9999
2 28499  98.2533 165.0792 0083735 215.7625 143.7964 14.85064592135476
CZ-2D R/B               
1 28738U 05024B   25363.98257013  .00044945  00000+0  68678-3 0  9996
2 28738  97.3630  11.8936 0003075 285.7570  74.3345 15.54281969128934
