CCSDS_OMM_VERS = 2.0
CREATION_DATE  = 
ORIGINATOR     = 

OBJECT_NAME    = IDEFIX & ARIANE 42P R/B
OBJECT_ID      = 2002-021B
CENTER_NAME    = EARTH
REF_FRAME      = TEME
TIME_SYSTEM    = UTC
MEAN_ELEMENT_THEORY = SGP/SGP4

EPOCH          = 2025-12-30T01:32:14.016768
MEAN_MOTION    = 14.30964692
ECCENTRICITY   = .001257
INCLINATION    = 98.5805
RA_OF_ASC_NODE = 298.5318
ARG_OF_PERICENTER = 36.6554
MEAN_ANOMALY   = 323.5486

EPHEMERIS_TYPE = 0
CLASSIFICATION_TYPE = U
NORAD_CAT_ID   = 27422
ELEMENT_SET_NO = 999
REV_AT_EPOCH   = 23406
BSTAR          = .22176E-3
MEAN_MOTION_DOT = .54E-5
MEAN_MOTION_DDOT = 0

CCSDS_OMM_VERS = 2.0
CREATION_DATE  = 
ORIGINATOR     = 

OBJECT_NAME    = AQUA
OBJECT_ID      = 2002-022A
CENTER_NAME    = EARTH
REF_FRAME      = TEME
TIME_SYSTEM    = UTC
MEAN_ELEMENT_THEORY = SGP/SGP4

EPOCH          = 2025-12-30T00:14:04.259328
MEAN_MOTION    = 14.61775988
ECCENTRICITY   = .0001902
INCLINATION    = 98.4060
RA_OF_ASC_NODE = 325.1715
ARG_OF_PERICENTER = 96.2534
MEAN_ANOMALY   = 338.9718

EPHEMERIS_TYPE = 0
CLASSIFICATION_TYPE = U
NORAD_CAT_ID   = 27424
ELEMENT_SET_NO = 999
REV_AT_EPOCH   = 25855
BSTAR          = .36397E-3
MEAN_MOTION_DOT = .1767E-4
MEAN_MOTION_DDOT = 0

CCSDS_OMM_VERS = 2.0
CREATION_DATE  = 
ORIGINATOR     = 

OBJECT_NAME    = CZ-4B R/B
OBJECT_ID      = 2002-024C
CENTER_NAME    = EARTH
REF_FRAME      = TEME
TIME_SYSTEM    = UTC
MEAN_ELEMENT_THEORY = SGP/SGP4

EPOCH          = 2025-12-30T02:46:28.081056
MEAN_MOTION    = 14.14531874
ECCENTRICITY   = .0049577
INCLINATION    = 98.8974
RA_OF_ASC_NODE = 52.8246
ARG_OF_PERICENTER = 219.7928
MEAN_ANOMALY   = 194.4855

EPHEMERIS_TYPE = 0
CLASSIFICATION_TYPE = U
NORAD_CAT_ID   = 27432
ELEMENT_SET_NO = 999
REV_AT_EPOCH   = 21940
BSTAR          = .81981E-4
MEAN_MOTION_DOT = .114E-5
MEAN_MOTION_DDOT = 0

CCSDS_OMM_VERS = 2.0
CREATION_DATE  = 
ORIGINATOR     = 

OBJECT_NAME    = MIDORI II (ADEOS-II)
OBJECT_ID      = 2002-056A
CENTER_NAME    = EARTH
REF_FRAME      = TEME
TIME_SYSTEM    = UTC
MEAN_ELEMENT_THEORY = SGP/SGP4

EPOCH          = 2025-12-30T03:32:23.413344
MEAN_MOTION    = 14.29219814
ECCENTRICITY   = .0001068
INCLINATION    = 98.7659
RA_OF_ASC_NODE = 317.1972
ARG_OF_PERICENTER = 140.0920
MEAN_ANOMALY   = 220.0340

EPHEMERIS_TYPE = 0
CLASSIFICATION_TYPE = U
NORAD_CAT_ID   = 27597
ELEMENT_SET_NO = 999
REV_AT_EPOCH   = 20036
BSTAR          = .23611E-3
MEAN_MOTION_DOT = .555E-5
MEAN_MOTION_DDOT = 0

CCSDS_OMM_VERS = 2.0
CREATION_DATE  = 
ORIGINATOR     = 

OBJECT_NAME    = H-2A R/B
OBJECT_ID      = 2002-056E
CENTER_NAME    = EARTH
REF_FRAME      = TEME
TIME_SYSTEM    = UTC
MEAN_ELEMENT_THEORY = SGP/SGP4

EPOCH          = 2025-12-30T02:50:49.963776
MEAN_MOTION    = 14.33693889
ECCENTRICITY   = .0070594
INCLINATION    = 98.3089
RA_OF_ASC_NODE = 322.1857
ARG_OF_PERICENTER = 9.9070
MEAN_ANOMALY   = 1.1935

EPHEMERIS_TYPE = 0
CLASSIFICATION_TYPE = U
NORAD_CAT_ID   = 27601
ELEMENT_SET_NO = 999
REV_AT_EPOCH   = 20414
BSTAR          = .26103E-3
MEAN_MOTION_DOT = .703E-5
MEAN_MOTION_DDOT = 0

CCSDS_OMM_VERS = 2.0
CREATION_DATE  = 
ORIGINATOR     = 

OBJECT_NAME    = CZ-4B R/B
OBJECT_ID      = 2003-049C
CENTER_NAME    = EARTH
REF_FRAME      = TEME
TIME_SYSTEM    = UTC
MEAN_ELEMENT_THEORY = SGP/SGP4

EPOCH          = 2025-12-30T04:50:01.803264
MEAN_MOTION    = 14.54928516
ECCENTRICITY   = .0049368
INCLINATION    = 98.6802
RA_OF_ASC_NODE = 351.4261
ARG_OF_PERICENTER = 83.8911
MEAN_ANOMALY   = 276.7907

EPHEMERIS_TYPE = 0
CLASSIFICATION_TYPE = U
NORAD_CAT_ID   = 28059
ELEMENT_SET_NO = 999
REV_AT_EPOCH   = 17649
BSTAR          = .18334E-3
MEAN_MOTION_DOT = .75E-5
MEAN_MOTION_DDOT = 0

CCSDS_OMM_VERS = 2.0
CREATION_DATE  = 
ORIGINATOR     = 

OBJECT_NAME    = CZ-2C R/B
OBJECT_ID      = 2004-012C
CENTER_NAME    = EARTH
REF_FRAME      = TEME
TIME_SYSTEM    = UTC
MEAN_ELEMENT_THEORY = SGP/SGP4

EPOCH          = 2025-12-30T02:25:41.776608
MEAN_MOTION    = 15.56923537
ECCENTRICITY   = .001675
INCLINATION    = 97.7392
RA_OF_ASC_NODE = 58.1712
ARG_OF_PERICENTER = 203.2693
MEAN_ANOMALY   = 156.7805

EPHEMERIS_TYPE = 0
CLASSIFICATION_TYPE = U
NORAD_CAT_ID   = 28222
ELEMENT_SET_NO = 999
REV_AT_EPOCH   = 19342
BSTAR          = .71793E-3
MEAN_MOTION_DOT = .52131E-3
MEAN_MOTION_DDOT = 0

CCSDS_OMM_VERS = 2.0
CREATION_DATE  = 
ORIGINATOR     = 

OBJECT_NAME    = SL-16 R/B
OBJECT_ID      = 2004-021B
CENTER_NAME    = EARTH
REF_FRAME      = TEME
TIME_SYSTEM    = UTC
MEAN_ELEMENT_THEORY = SGP/SGP4

EPOCH          = 2025-12-30T03:48:11.457216
MEAN_MOTION    = 14.14583112
ECCENTRICITY   = .0004321
INCLINATION    = 71.0006
RA_OF_ASC_NODE = 18.4101
ARG_OF_PERICENTER = 170.4967
MEAN_ANOMALY   = 189.6238

EPHEMERIS_TYPE = 0
CLASSIFICATION_TYPE = U
NORAD_CAT_ID   = 28353
ELEMENT_SET_NO = 999
REV_AT_EPOCH   = 11300
BSTAR          = .2207E-3
MEAN_MOTION_DOT = .376E-5
MEAN_MOTION_DDOT = 0

CCSDS_OMM_VERS = 2.0
CREATION_DATE  = 
ORIGINATOR     = 

OBJECT_NAME    = CZ-4B R/B
OBJECT_ID      = 2004-035C
CENTER_NAME    = EARTH
REF_FRAME      = TEME
TIME_SYSTEM    = UTC
MEAN_ELEMENT_THEORY = SGP/SGP4

EPOCH          = 2025-12-30T01:15:00.512064
MEAN_MOTION    = 15.27678801
ECCENTRICITY   = .0032094
INCLINATION    = 97.3597
RA_OF_ASC_NODE = 34.1668
ARG_OF_PERICENTER = 213.2423
MEAN_ANOMALY   = 146.6801

EPHEMERIS_TYPE = 0
CLASSIFICATION_TYPE = U
NORAD_CAT_ID   = 28415
ELEMENT_SET_NO = 999
REV_AT_EPOCH   = 16927
BSTAR          = .48479E-3
MEAN_MOTION_DOT = .13248E-3
MEAN_MOTION_DDOT = 0

CCSDS_OMM_VERS = 2.0
CREATION_DATE  = 
ORIGINATOR     = 

OBJECT_NAME    = CZ-2C R/B
OBJECT_ID      = 2004-046B
CENTER_NAME    = EARTH
REF_FRAME      = TEME
TIME_SYSTEM    = UTC
MEAN_ELEMENT_THEORY = SGP/SGP4

EPOCH          = 2025-12-29T18:54:04.404672
MEAN_MOTION    = 14.26952681
ECCENTRICITY   = .0139605
INCLINATION    = 98.1998
RA_OF_ASC_NODE = 278.1069
ARG_OF_PERICENTER = 2.1011
MEAN_ANOMALY   = 358.0729

EPHEMERIS_TYPE = 0
CLASSIFICATION_TYPE = U
NORAD_CAT_ID   = 28480
ELEMENT_SET_NO = 999
REV_AT_EPOCH   = 9853
BSTAR          = .18456E-3
MEAN_MOTION_DOT = .456E-5
MEAN_MOTION_DDOT = 0

CCSDS_OMM_VERS = 2.0
CREATION_DATE  = 
ORIGINATOR     = 

OBJECT_NAME    = ARIANE 5 R/B
OBJECT_ID      = 2004-049H
CENTER_NAME    = EARTH
REF_FRAME      = TEME
TIME_SYSTEM    = UTC
MEAN_ELEMENT_THEORY = SGP/SGP4

EPOCH          = 2025-12-30T04:06:37.063584
MEAN_MOTION    = 14.85064592
ECCENTRICITY   = .0083735
INCLINATION    = 98.2533
RA_OF_ASC_NODE = 165.0792
ARG_OF_PERICENTER = 215.7625
MEAN_ANOMALY   = 143.7964

EPHEMERIS_TYPE = 0
CLASSIFICATION_TYPE = U
NORAD_CAT_ID   = 28499
ELEMENT_SET_NO = 999
REV_AT_EPOCH   = 13547
BSTAR          = .24329E-3
MEAN_MOTION_DOT = .2148E-4
MEAN_MOTION_DDOT = 0

CCSDS_OMM_VERS = 2.0
CREATION_DATE  = 
ORIGINATOR     = 

OBJECT_NAME    = CZ-2D R/B
OBJECT_ID      = 2005-024B
CENTER_NAME    = EARTH
REF_FRAME      = TEME
TIME_SYSTEM    = UTC
MEAN_ELEMENT_THEORY = SGP/SGP4

EPOCH          = 2025-12-29T23:34:54.059232
MEAN_MOTION    = 15.54281969
ECCENTRICITY   = .0003075
INCLINATION    = 97.3630
RA_OF_ASC_NODE = 11.8936
ARG_OF_PERICENTER = 285.7570
MEAN_ANOMALY   = 74.3345

EPHEMERIS_TYPE = 0
CLASSIFICATION_TYPE = U
NORAD_CAT_ID   = 28738
ELEMENT_SET_NO = 999
REV_AT_EPOCH   = 12893
BSTAR          = .68678E-3
MEAN_MOTION_DOT = .44945E-3
MEAN_MOTION_DDOT = 0

